{"type": "FeatureCollection", "features": [ {"type": "Feature", "properties": {"norad_id": 66052, "name": "HRC MONOBLOCK CAMERA", "group": "stations", "lat": 46.94682632987677, "lon": 159.8002973899142, "alt_km": 398.1526596024296, "timestamp": "2025-12-20T16:47:35.053404+00:00", "meta": {"OBJECT_NAME": "HRC MONOBLOCK CAMERA", "OBJECT_ID": "1998-067XR", "EPOCH": "2025-12-20T11:52:12.969984", "MEAN_MOTION": 15.54656464, "ECCENTRICITY": 0.0002464, "INCLINATION": 51.6308, "RA_OF_ASC_NODE": 102.825, "ARG_OF_PERICENTER": 220.8988, "MEAN_ANOMALY": 139.1818, "EPHEMERIS_TYPE": 0, "CLASSIFICATION_TYPE": "U", "NORAD_CAT_ID": 66052, "ELEMENT_SET_NO": 999, "REV_AT_EPOCH": 1004, "BSTAR": 0.00040452, "MEAN_MOTION_DOT": 0.00026911, "MEAN_MOTION_DDOT": 0}, "tle": {"line1": "1 66052U 98067XR  25354.49459456  .00026911  00000+0  40452-3 0  9990", "line2": "2 66052  51.6308 102.8250 0002464 220.8988 139.1818 15.54656464 10047"}}, "geometry": {"type": "Point", "coordinates": [159.8002973899142, 46.94682632987677]}}, {"type": "Feature", "properties": {"norad_id": 66174, "name": "HTV-X1", "group": "stations", "lat": -3.2936883477949066, "lon": -74.32791832021903, "alt_km": 418.9058035900671, "timestamp": "2025-12-20T16:47:35.053417+00:00", "meta": {"OBJECT_NAME": "HTV-X1", "OBJECT_ID": "2025-241A", "EPOCH": "2025-12-20T05:10:04.568160", "MEAN_MOTION": 15.49679666, "ECCENTRICITY": 0.00031985, "INCLINATION": 51.6321, "RA_OF_ASC_NODE": 105.4589, "ARG_OF_PERICENTER": 275.1086, "MEAN_ANOMALY": 84.9538, "EPHEMERIS_TYPE": 0, "CLASSIFICATION_TYPE": "U", "NORAD_CAT_ID": 66174, "ELEMENT_SET_NO": 999, "REV_AT_EPOCH": 51, "BSTAR": 0.00013176766, "MEAN_MOTION_DOT": 6.989e-05, "MEAN_MOTION_DDOT": 0}, "tle": {"line1": "1 66174U 25241A   25354.21533065  .00006989  00000+0  13177-3 0  9995", "line2": "2 66174  51.6321 105.4589 0003198 275.1086  84.9538 15.49679666   518"}}, "geometry": {"type": "Point", "coordinates": [-74.32791832021903, -3.2936883477949066]}}, {"type": "Feature", "properties": {"norad_id": 66515, "name": "SZ-21 MODULE", "group": "stations", "lat": -37.910624785063135, "lon": -150.69303911767375, "alt_km": 380.1825720948118, "timestamp": "2025-12-20T16:47:35.053429+00:00", "meta": {"OBJECT_NAME": "SZ-21 MODULE", "OBJECT_ID": "2025-246C", "EPOCH": "2025-12-20T00:23:58.587648", "MEAN_MOTION": 15.62845969, "ECCENTRICITY": 0.00056139, "INCLINATION": 41.4774, "RA_OF_ASC_NODE": 331.6436, "ARG_OF_PERICENTER": 298.6843, "MEAN_ANOMALY": 61.3432, "EPHEMERIS_TYPE": 0, "CLASSIFICATION_TYPE": "U", "NORAD_CAT_ID": 66515, "ELEMENT_SET_NO": 999, "REV_AT_EPOCH": 558, "BSTAR": 0.00022500266, "MEAN_MOTION_DOT": 0.00020613, "MEAN_MOTION_DDOT": 0}, "tle": {"line1": "1 66515U 25246C   25354.01665032  .00020613  00000+0  22500-3 0  9997", "line2": "2 66515  41.4774 331.6436 0005613 298.6843  61.3432 15.62845969  5585"}}, "geometry": {"type": "Point", "coordinates": [-150.69303911767375, -37.910624785063135]}}, {"type": "Feature", "properties": {"norad_id": 66645, "name": "SHENZHOU-22", "group": "stations", "lat": -36.48967326777436, "lon": -154.74347565218437, "alt_km": 396.166911588758, "timestamp": "2025-12-20T16:47:35.053440+00:00", "meta": {"OBJECT_NAME": "SHENZHOU-22", "OBJECT_ID": "2025-272A", "EPOCH": "2025-12-20T04:59:38.766912", "MEAN_MOTION": 15.59496428, "ECCENTRICITY": 0.00077465, "INCLINATION": 41.4685, "RA_OF_ASC_NODE": 331.3573, "ARG_OF_PERICENTER": 96.7908, "MEAN_ANOMALY": 263.3812, "EPHEMERIS_TYPE": 0, "CLASSIFICATION_TYPE": "U", "NORAD_CAT_ID": 66645, "ELEMENT_SET_NO": 999, "REV_AT_EPOCH": 26519, "BSTAR": 0.00022776024, "MEAN_MOTION_DOT": 0.00018311, "MEAN_MOTION_DDOT": 0}, "tle": {"line1": "1 66645U 25272A   25354.20808758  .00018311  00000+0  22776-3 0  9992", "line2": "2 66645  41.4685 331.3573 0007746  96.7908 263.3812 15.59496428265196"}}, "geometry": {"type": "Point", "coordinates": [-154.74347565218437, -36.48967326777436]}}, {"type": "Feature", "properties": {"norad_id": 66664, "name": "SOYUZ-MS 28", "group": "stations", "lat": -3.294161637177789, "lon": -74.32742014020975, "alt_km": 418.9072986147121, "timestamp": "2025-12-20T16:47:35.053449+00:00", "meta": {"OBJECT_NAME": "SOYUZ-MS 28", "OBJECT_ID": "2025-275A", "EPOCH": "2025-12-20T06:42:56.229408", "MEAN_MOTION": 15.4968092, "ECCENTRICITY": 0.0003193, "INCLINATION": 51.632, "RA_OF_ASC_NODE": 105.1395, "ARG_OF_PERICENTER": 275.4219, "MEAN_ANOMALY": 84.6406, "EPHEMERIS_TYPE": 0, "CLASSIFICATION_TYPE": "U", "NORAD_CAT_ID": 66664, "ELEMENT_SET_NO": 999, "REV_AT_EPOCH": 361, "BSTAR": 0.00013442, "MEAN_MOTION_DOT": 7.139e-05, "MEAN_MOTION_DDOT": 0}, "tle": {"line1": "1 66664U 25275A   25354.27981747  .00007139  00000+0  13442-3 0  9999", "line2": "2 66664  51.6320 105.1395 0003193 275.4219  84.6406 15.49680920  3619"}}, "geometry": {"type": "Point", "coordinates": [-74.32742014020975, -3.294161637177789]}}, {"type": "Feature", "properties": {"norad_id": 66906, "name": "1998-067XS", "group": "stations", "lat": -46.18381462759725, "lon": -21.410436749018793, "alt_km": 416.32074495418783, "timestamp": "2025-12-20T16:47:35.053460+00:00", "meta": {"OBJECT_NAME": "1998-067XS", "OBJECT_ID": "1998-067XS", "EPOCH": "2025-12-20T11:05:35.991168", "MEAN_MOTION": 15.50962254, "ECCENTRICITY": 0.0003003, "INCLINATION": 51.6311, "RA_OF_ASC_NODE": 104.1082, "ARG_OF_PERICENTER": 237.5, "MEAN_ANOMALY": 122.5699, "EPHEMERIS_TYPE": 0, "CLASSIFICATION_TYPE": "U", "NORAD_CAT_ID": 66906, "ELEMENT_SET_NO": 999, "REV_AT_EPOCH": 281, "BSTAR": 0.00037246, "MEAN_MOTION_DOT": 0.00021596, "MEAN_MOTION_DDOT": 0}, "tle": {"line1": "1 66906U 98067XS  25354.46222212  .00021596  00000+0  37246-3 0  9994", "line2": "2 66906  51.6311 104.1082 0003003 237.5000 122.5699 15.50962254  2819"}}, "geometry": {"type": "Point", "coordinates": [-21.410436749018793, -46.18381462759725]}}, {"type": "Feature", "properties": {"norad_id": 66907, "name": "1998-067XT", "group": "stations", "lat": -45.04452905849858, "lon": 50.30964687203672, "alt_km": 411.7679151085058, "timestamp": "2025-12-20T16:47:35.053471+00:00", "meta": {"OBJECT_NAME": "1998-067XT", "OBJECT_ID": "1998-067XT", "EPOCH": "2025-12-19T11:42:50.767776", "MEAN_MOTION": 15.52255247, "ECCENTRICITY": 0.0003998, "INCLINATION": 51.6306, "RA_OF_ASC_NODE": 108.8528, "ARG_OF_PERICENTER": 265.7173, "MEAN_ANOMALY": 94.336, "EPHEMERIS_TYPE": 0, "CLASSIFICATION_TYPE": "U", "NORAD_CAT_ID": 66907, "ELEMENT_SET_NO": 999, "REV_AT_EPOCH": 266, "BSTAR": 0.00077339, "MEAN_MOTION_DOT": 0.00047666, "MEAN_MOTION_DDOT": 0}, "tle": {"line1": "1 66907U 98067XT  25353.48808759  .00047666  00000+0  77339-3 0  9995", "line2": "2 66907  51.6306 108.8528 0003998 265.7173  94.3360 15.52255247  2660"}}, "geometry": {"type": "Point", "coordinates": [50.30964687203672, -45.04452905849858]}}, {"type": "Feature", "properties": {"norad_id": 66908, "name": "1998-067XU", "group": "stations", "lat": -42.74427817207578, "lon": 55.74638785607418, "alt_km": 411.47988292190075, "timestamp": "2025-12-20T16:47:35.053481+00:00", "meta": {"OBJECT_NAME": "1998-067XU", "OBJECT_ID": "1998-067XU", "EPOCH": "2025-12-20T07:46:52.178592", "MEAN_MOTION": 15.52443245, "ECCENTRICITY": 0.0003897, "INCLINATION": 51.6312, "RA_OF_ASC_NODE": 104.6877, "ARG_OF_PERICENTER": 270.3762, "MEAN_ANOMALY": 89.6781, "EPHEMERIS_TYPE": 0, "CLASSIFICATION_TYPE": "U", "NORAD_CAT_ID": 66908, "ELEMENT_SET_NO": 999, "REV_AT_EPOCH": 279, "BSTAR": 0.00082115, "MEAN_MOTION_DOT": 0.00051005, "MEAN_MOTION_DDOT": 0}, "tle": {"line1": "1 66908U 98067XU  25354.32421503  .00051005  00000+0  82115-3 0  9998", "line2": "2 66908  51.6312 104.6877 0003897 270.3762  89.6781 15.52443245  2798"}}, "geometry": {"type": "Point", "coordinates": [55.74638785607418, -42.74427817207578]}}, {"type": "Feature", "properties": {"norad_id": 66909, "name": "SILVERSAT", "group": "stations", "lat": -39.45801333439251, "lon": 62.10200042870021, "alt_km": 411.0500660069483, "timestamp": "2025-12-20T16:47:35.053491+00:00", "meta": {"OBJECT_NAME": "SILVERSAT", "OBJECT_ID": "1998-067XV", "EPOCH": "2025-12-19T13:13:09.424128", "MEAN_MOTION": 15.5251652, "ECCENTRICITY": 0.0003839, "INCLINATION": 51.6306, "RA_OF_ASC_NODE": 108.5226, "ARG_OF_PERICENTER": 268.696, "MEAN_ANOMALY": 91.359, "EPHEMERIS_TYPE": 0, "CLASSIFICATION_TYPE": "U", "NORAD_CAT_ID": 66909, "ELEMENT_SET_NO": 999, "REV_AT_EPOCH": 267, "BSTAR": 0.00079912, "MEAN_MOTION_DOT": 0.00049748, "MEAN_MOTION_DDOT": 0}, "tle": {"line1": "1 66909U 98067XV  25353.55080352  .00049748  00000+0  79912-3 0  9998", "line2": "2 66909  51.6306 108.5226 0003839 268.6960  91.3590 15.52516520  2671"}}, "geometry": {"type": "Point", "coordinates": [62.10200042870021, -39.45801333439251]}}, {"type": "Feature", "properties": {"norad_id": 66910, "name": "1998-067XW", "group": "stations", "lat": -33.09189170482538, "lon": 71.70050755884097, "alt_km": 411.723521833278, "timestamp": "2025-12-20T16:47:35.053501+00:00", "meta": {"OBJECT_NAME": "1998-067XW", "OBJECT_ID": "1998-067XW", "EPOCH": "2025-12-20T10:48:13.120704", "MEAN_MOTION": 15.52613612, "ECCENTRICITY": 0.0004276, "INCLINATION": 51.6311, "RA_OF_ASC_NODE": 104.0281, "ARG_OF_PERICENTER": 248.7009, "MEAN_ANOMALY": 111.3524, "EPHEMERIS_TYPE": 0, "CLASSIFICATION_TYPE": "U", "NORAD_CAT_ID": 66910, "ELEMENT_SET_NO": 999, "REV_AT_EPOCH": 281, "BSTAR": 0.00071418, "MEAN_MOTION_DOT": 0.0004454, "MEAN_MOTION_DDOT": 0}, "tle": {"line1": "1 66910U 98067XW  25354.45015186  .00044540  00000+0  71418-3 0  9991", "line2": "2 66910  51.6311 104.0281 0004276 248.7009 111.3524 15.52613612  2816"}}, "geometry": {"type": "Point", "coordinates": [71.70050755884097, -33.09189170482538]}}]}